     2.10           N: GPS NAV DATA                         RINEX VERSION / TYPE
teqc  2013Mar15                         20171212 01:16:09UTCPGM / RUN BY / DATE
Linux 2.4.20-8|Pentium IV|gcc -static|Linux|486/DX+         COMMENT
     2.10           N: GPS NAV DATA                         COMMENT
teqc  2013Mar15                         20171211 01:00:01UTCCOMMENT
                                                            END OF HEADER
30 17 12 11 16  0  0.0 1.215515658259D-04-2.842170943040D-12 0.000000000000D+00
    6.500000000000D+01 4.734375000000D+01 5.004494171556D-09-1.632493240765D+00
    2.350658178329D-06 3.002880024724D-03 4.917383193970D-06 5.153595180511D+03
    1.440000000000D+05 1.303851604462D-08-2.832381935094D+00-2.793967723846D-08
    9.462189071184D-01 2.769375000000D+02-3.073693821308D+00-8.422493687812D-09
   -1.107188976008D-11 0.000000000000D+00 1.979000000000D+03 0.000000000000D+00
    2.000000000000D+00 0.000000000000D+00 3.725290298462D-09 6.500000000000D+01
    1.368000000000D+05 4.000000000000D+00
16 17 12 11 16  0  0.0 3.555510193110D-05-4.547473508865D-13 0.000000000000D+00
    2.700000000000D+01-3.803125000000D+01 3.842660062216D-09 2.043707565195D+00
   -1.950189471245D-06 9.545072331093D-03 7.616356015205D-06 5.153553770065D+03
    1.440000000000D+05-1.452863216400D-07-1.760580696533D+00-5.587935447693D-09
    9.882288248629D-01 2.507500000000D+02 4.503160473452D-01-7.867113411137D-09
   -3.385855320179D-10 0.000000000000D+00 1.979000000000D+03 0.000000000000D+00
    2.000000000000D+00 0.000000000000D+00-1.071020960808D-08 2.700000000000D+01
    1.370100000000D+05 4.000000000000D+00
 9 17 12 11 16  0  0.0 4.819747991860D-04 4.206412995700D-12 0.000000000000D+00
    3.400000000000D+01 3.571875000000D+01 4.588762568951D-09 1.424052425980D+00
    1.765787601471D-06 1.097320113331D-03 1.001730561256D-05 5.153725934982D+03
    1.440000000000D+05-2.793967723846D-08 2.336945737410D+00-4.097819328308D-08
    9.529836421996D-01 1.807812500000D+02 1.724327683272D+00-8.008547873879D-09
   -9.286101089098D-12 0.000000000000D+00 1.979000000000D+03 0.000000000000D+00
    2.000000000000D+00 0.000000000000D+00 9.313225746155D-10 3.400000000000D+01
    1.371000000000D+05 4.000000000000D+00
13 17 12 11 16  0  0.0-9.468896314502D-05-2.273736754432D-13 0.000000000000D+00
    8.900000000000D+01 5.465625000000D+01 4.391611499675D-09-3.406191556522D-01
    2.935528755188D-06 3.666147007607D-03 9.534880518913D-06 5.153661952972D+03
    1.440000000000D+05-4.656612873077D-08 2.466109966716D+00 4.097819328308D-08
    9.689637532297D-01 1.985625000000D+02 1.656693475316D+00-7.979618097409D-09
    7.143154683922D-11 0.000000000000D+00 1.979000000000D+03 0.000000000000D+00
    2.800000000000D+00 0.000000000000D+00-1.164153218269D-08 8.900000000000D+01
    1.371900000000D+05 4.000000000000D+00
 6 17 12 11 15 59 44.0 4.128916189075D-04 1.023181539495D-12 0.000000000000D+00
    2.000000000000D+01-9.375000000000D+00 4.613049294877D-09-7.704416868687D-01
   -5.885958671570D-07 7.262552389875D-04 5.500391125679D-06 5.153798278809D+03
    1.439840000000D+05-3.725290298462D-09 2.508725152187D-01-4.097819328308D-08
    9.694309624508D-01 2.795937500000D+02-1.287858635384D+00-8.185698110040D-09
    2.160804291886D-10 0.000000000000D+00 1.979000000000D+03 0.000000000000D+00
    2.000000000000D+00 0.000000000000D+00 4.656612873077D-09 2.000000000000D+01
    1.372500000000D+05 4.000000000000D+00
 2 17 12 11 16  0  0.0 2.580936998129D-04-1.000444171950D-11 0.000000000000D+00
    6.500000000000D+01-6.968750000000D+00 5.239146802922D-09-6.204601376838D-01
   -1.154839992523D-07 1.742627355270D-02 5.582347512245D-06 5.153633691788D+03
    1.440000000000D+05-1.285225152969D-07 2.016324364689D-01 2.160668373108D-07
    9.487116390650D-01 2.708125000000D+02-1.928811721585D+00-8.739292598044D-09
    2.717970357232D-10 0.000000000000D+00 1.979000000000D+03 0.000000000000D+00
    2.000000000000D+00 0.000000000000D+00-2.048909664154D-08 6.500000000000D+01
    1.374600000000D+05 4.000000000000D+00
 5 17 12 11 16  0  0.0-2.009514719248D-05 1.136868377216D-12 0.000000000000D+00
    7.500000000000D+01-4.775000000000D+01 5.067353932774D-09 1.907128106969D+00
   -2.454966306686D-06 5.297068506479D-03 8.534640073776D-06 5.153603532791D+03
    1.440000000000D+05-1.490116119385D-07 1.282307014880D+00 4.470348358154D-08
    9.469594435647D-01 2.099687500000D+02 6.306835651306D-01-8.238914612435D-09
   -1.896507568581D-10 0.000000000000D+00 1.979000000000D+03 0.000000000000D+00
    2.000000000000D+00 0.000000000000D+00-1.071020960808D-08 7.500000000000D+01
    1.375200000000D+05 4.000000000000D+00
23 17 12 11 15 59 44.0-2.189599908888D-04-1.136868377216D-13 0.000000000000D+00
    3.100000000000D+01 3.306250000000D+01 4.952349142363D-09-2.157222671612D-01
    1.765787601471D-06 1.184989430476D-02 9.939074516296D-06 5.153635238647D+03
    1.439840000000D+05-5.587935447693D-09 2.336902657399D+00 1.229345798492D-07
    9.438237240122D-01 1.780937500000D+02-2.410715583249D+00-8.373563078227D-09
   -3.285851154604D-11 0.000000000000D+00 1.979000000000D+03 0.000000000000D+00
    2.000000000000D+00 0.000000000000D+00-2.048909664154D-08 3.100000000000D+01
    1.376100000000D+05 4.000000000000D+00
 7 17 12 11 16  0  0.0 2.674013376236D-04-5.343281372916D-12 0.000000000000D+00
    6.300000000000D+01 4.918750000000D+01 4.644479175486D-09-1.703023400389D+00
    2.427026629448D-06 1.108149858192D-02 4.973262548447D-06 5.153707124710D+03
    1.440000000000D+05 1.154839992523D-07-2.868400956070D+00-1.359730958939D-07
    9.605637405240D-01 2.829062500000D+02-2.545309096535D+00-8.133910238582D-09
    7.250302004181D-11 0.000000000000D+00 1.979000000000D+03 0.000000000000D+00
    2.000000000000D+00 0.000000000000D+00-1.117587089539D-08 6.300000000000D+01
    1.376700000000D+05 4.000000000000D+00
28 17 12 11 16  0  0.0 6.701010279357D-04 3.296918293927D-12 0.000000000000D+00
    4.000000000000D+01-3.053125000000D+01 3.717654855247D-09 2.052117492096D+00
   -1.771375536919D-06 1.998668618035D-02 6.800517439842D-06 5.153669565201D+03
    1.440000000000D+05 2.961605787277D-07-1.756205136353D+00-1.825392246246D-07
    9.870663462696D-01 2.580625000000D+02-1.543872270443D+00-7.555671866918D-09
   -2.546534644818D-10 0.000000000000D+00 1.979000000000D+03 0.000000000000D+00
    2.800000000000D+00 0.000000000000D+00-1.117587089539D-08 4.000000000000D+01
    1.389000000000D+05 4.000000000000D+00
20 17 12 11 16  0  0.0 4.952722229064D-04 1.023181539495D-12 0.000000000000D+00
    1.030000000000D+02-5.606250000000D+01 5.508800892240D-09 7.641661720741D-02
   -2.825632691383D-06 4.634661599994D-03 7.970258593559D-06 5.153761907578D+03
    1.440000000000D+05-2.235174179077D-08 1.197907199586D+00 1.117587089539D-08
    9.273028599434D-01 2.092500000000D+02 1.735479294204D+00-8.597858135302D-09
   -2.028655930234D-10 0.000000000000D+00 1.979000000000D+03 0.000000000000D+00
    2.000000000000D+00 0.000000000000D+00-8.381903171539D-09 1.030000000000D+02
    1.392600000000D+05 4.000000000000D+00
13 17 12 11 15 59 44.0-9.468942880630D-05-2.273736754432D-13 0.000000000000D+00
    2.000000000000D+01 5.465625000000D+01 4.391611499675D-09-3.429532546139D-01
    2.935528755188D-06 3.666150034405D-03 9.534880518913D-06 5.153661952972D+03
    1.439840000000D+05-4.656612873077D-08 2.466110101304D+00 4.097819328308D-08
    9.689637473780D-01 1.985625000000D+02 1.656693810324D+00-7.979975255143D-09
    7.143154683922D-11 0.000000000000D+00 1.979000000000D+03 0.000000000000D+00
    2.000000000000D+00 0.000000000000D+00-1.164153218269D-08 2.000000000000D+01
    1.407900000000D+05 4.000000000000D+00
20 17 12 11 15 59 44.0 4.952703602612D-04 1.023181539495D-12 0.000000000000D+00
    2.000000000000D+01-5.606250000000D+01 5.509158049975D-09 7.408266453748D-02
   -2.825632691383D-06 4.634663462639D-03 7.970258593559D-06 5.153761907578D+03
    1.439840000000D+05-2.235174179077D-08 1.197907360507D+00 1.117587089539D-08
    9.273028409254D-01 2.092500000000D+02 1.735479607269D+00-8.597858135302D-09
   -2.028655930234D-10 0.000000000000D+00 1.979000000000D+03 0.000000000000D+00
    2.000000000000D+00 0.000000000000D+00-8.381903171539D-09 2.000000000000D+01
    1.410600000000D+05 4.000000000000D+00
27 17 12 11 16  0  0.0 3.551724366844D-04 2.955857780762D-12 0.000000000000D+00
    6.900000000000D+01-5.312500000000D-01 4.006238304477D-09 1.215734565070D+00
   -5.215406417847D-08 5.142958136275D-03 9.300187230110D-06 5.153682289124D+03
    1.440000000000D+05 4.284083843231D-08-7.972874478453D-01 4.097819328308D-08
    9.764962525885D-01 2.078125000000D+02 3.592354450611D-01-7.915329705254D-09
    1.603638226540D-10 0.000000000000D+00 1.979000000000D+03 0.000000000000D+00
    2.000000000000D+00 0.000000000000D+00 1.862645149231D-09 6.900000000000D+01
    1.416900000000D+05 4.000000000000D+00
15 17 12 11 16  0  0.0-3.573889844120D-04-1.136868377216D-13 0.000000000000D+00
    7.100000000000D+01 4.125000000000D+01 5.304149510546D-09 3.079375833164D-01
    2.324581146240D-06 1.004463038407D-02 9.940937161446D-06 5.153661146164D+03
    1.440000000000D+05 1.490116119385D-08 2.270415697596D+00 2.030283212662D-07
    9.285074793549D-01 1.683750000000D+02 6.457945506781D-01-8.481067556220D-09
   -2.857261873569D-11 0.000000000000D+00 1.979000000000D+03 0.000000000000D+00
    2.000000000000D+00 0.000000000000D+00-1.071020960808D-08 7.100000000000D+01
    1.422300000000D+05 4.000000000000D+00
